{"fetched_at":"2026-03-30T06:02:59Z","count":15439,"tles":[{"name":"STARLINK-35193","line1":"1 65889U 25224H   26087.91259475 -.00001329  00000+0 -32754-4 0  9997","line2":"2 65889  53.1598 282.3211 0001078  75.8437 284.2683 15.30192498 27798","category":"Starlink"}]}