{
  "norad_id": 65889,
  "name": "STARLINK-35193",
  "history": [
    {
      "epoch": "2026-03-28T21:54:08.186400Z",
      "apogee_km": 475.97626289836717,
      "perigee_km": 474.4986753628218,
      "latitude_deg": -3.591082067086491e-05,
      "longitude_deg": 127.46073288258698,
      "height_km": 475.9551477923422,
      "semi_major_axis_km": 6853.374469130594,
      "eccentricity": 0.0001078,
      "inclination_deg": 53.1598,
      "raan_deg": 282.3211,
      "arg_perigee_deg": 75.8437,
      "mean_anomaly_deg": 284.2683,
      "mean_motion_rev_day": 15.30192498
    }
  ]
}